[{"OBJECT_NAME":"STARLINK-3839","OBJECT_ID":"2022-049AF","EPOCH":"2026-03-09T23:01:34.141152","MEAN_MOTION":15.08835969,"ECCENTRICITY":0.00013007,"INCLINATION":53.2162,"RA_OF_ASC_NODE":57.9097,"ARG_OF_PERICENTER":88.8633,"MEAN_ANOMALY":271.2508,"EPHEMERIS_TYPE":0,"CLASSIFICATION_TYPE":"U","NORAD_CAT_ID":52480,"ELEMENT_SET_NO":999,"REV_AT_EPOCH":21229,"BSTAR":-0.00043773734,"MEAN_MOTION_DOT":-7.247e-5,"MEAN_MOTION_DDOT":0},{"OBJECT_NAME":"THOR ABLESTAR DEB","OBJECT_ID":"1961-015HM","EPOCH":"2026-03-09T12:53:31.788672","MEAN_MOTION":15.12609006,"ECCENTRICITY":0.0020802,"INCLINATION":66.4912,"RA_OF_ASC_NODE":108.7707,"ARG_OF_PERICENTER":275.236,"MEAN_ANOMALY":209.827,"EPHEMERIS_TYPE":0,"CLASSIFICATION_TYPE":"U","NORAD_CAT_ID":660,"ELEMENT_SET_NO":999,"REV_AT_EPOCH":37032,"BSTAR":0.0020976473,"MEAN_MOTION_DOT":0.00036985,"MEAN_MOTION_DDOT":0}]
